HULIANWANG DIGUI E      
1 63691U 25086E   25127.90969471  .00000117  00000+0  18365-3 0  9992
2 63691  86.5052  89.7358 0010175 270.3099  89.6879 13.41119746  1192
HULIANWANG DIGUI F      
1 63692U 25086F   25127.91062784  .00000119  00000+0  18766-3 0  9992
2 63692  86.4990  89.7297 0008931 276.3079  83.7047 13.40980405  1195
HULIANWANG DIGUI G      
1 63693U 25086G   25127.91089328  .00000130  00000+0  20768-3 0  9994
2 63693  86.5039  89.7335 0009799 279.4658  80.5378 13.40941634  1197
HULIANWANG DIGUI H      
1 63694U 25086H   25127.91134696  .00000132  00000+0  21130-3 0  9990
2 63694  86.5000  89.7311 0010889 275.1014  84.8886 13.40876033  1192
HULIANWANG DIGUI J      
1 63695U 25086J   25127.91190048  .00000129  00000+0  20724-3 0  9998
2 63695  86.4963  89.7273 0010037 277.3794  82.6208 13.40791249  1190
HULIANWANG DIGUI K      
1 63696U 25086K   25127.91233256  .00000126  00000+0  20175-3 0  9995
2 63696  86.4992  89.7323 0011153 273.8356  86.1512 13.40710259  1193
STARLINK-33894          
1 63697U 25087A   25127.91668981 -.01045187  33011-3 -31458-2 0  9990
2 63697  53.1559 211.2635 0000759  56.0495 344.1138 15.91557816  1442
STARLINK-33922          
1 63698U 25087B   25127.91668981 -.01046594  33105-3 -31435-2 0  9993
2 63698  53.1557 211.2596 0000891  54.4884 347.4362 15.91598057  1300
STARLINK-33919          
1 63699U 25087C   25127.91668981 -.01052250  33449-3 -31510-2 0  9995
2 63699  53.1558 211.2554 0000772  55.1109 348.7979 15.91657446  1443
STARLINK-33908          
1 63700U 25087D   25127.91668981 -.01058544  33835-3 -31586-2 0  9992
2 63700  53.1557 211.2503 0000898  57.0149 349.3495 15.91727124  1309
STARLINK-33950          
1 63701U 25087E   25127.91668981 -.01060329  33952-3 -31573-2 0  9993
2 63701  53.1556 211.2475 0000803  55.1399 352.4885 15.91768083  1395
STARLINK-33939          
1 63702U 25087F   25127.91668981 -.01065531  34276-3 -31624-2 0  9991
2 63702  53.1557 211.2430 0000860  55.4663 354.3720 15.91832276  1304
STARLINK-33868          
1 63703U 25087G   25127.91668981 -.01069983  34556-3 -31661-2 0  9999
2 63703  53.1557 211.2390 0000867  55.7731 356.0403 15.91890969  1463
STARLINK-33937          
1 63704U 25087H   25127.91668981 -.01080366  35212-3 -31755-2 0  9992
2 63704  53.1558 211.2296 0000733  53.6104   2.6050 15.92022051  1308
STARLINK-33848          
1 63705U 25087J   25127.91668981 -.01076643  34971-3 -31745-2 0  9996
2 63705  53.1556 211.2339 0000837  56.4456 357.7547 15.91960775  1466
STARLINK-33995          
1 63706U 25087K   25127.91668981 -.01083158  35396-3 -31747-2 0  9990
2 63706  53.1555 211.2260 0000796  50.8678   7.1781 15.92076988  1479
STARLINK-33982          
1 63707U 25087L   25127.91668981 -.01085518  35552-3 -31739-2 0  9998
2 63707  53.1557 211.2226 0000760  50.8868   8.6666 15.92124203  1478
STARLINK-33915          
1 63708U 25087M   25127.91668981 -.01094020  36083-3 -31876-2 0  9999
2 63708  53.1556 211.2180 0000714  55.7565   6.0619 15.92193008  1305
STARLINK-33862          
1 63709U 25087N   25127.91668981 -.01103123  36654-3 -32032-2 0  9994
2 63709  53.1560 211.2134 0000701  55.4523   8.5394 15.92260092  1447
STARLINK-33920          
1 63710U 25087P   25127.91668981 -.01107285  36922-3 -32075-2 0  9994
2 63710  53.1555 211.2103 0000780  49.5479  15.9113 15.92307286  1303
STARLINK-33580          
1 63711U 25087Q   25127.91668981 -.01122423  37871-3 -32389-2 0  9998
2 63711  53.1555 211.2052 0000822  51.3519  16.5682 15.92383570  1308
STARLINK-33783          
1 63712U 25087R   25127.91668981 -.01140941  39042-3 -32801-2 0  9995
2 63712  53.1554 211.2000 0000808  52.2214  18.0535 15.92458316  1470
STARLINK-33773          
1 63713U 25087S   25127.91668981 -.01161009  40328-3 -33252-2 0  9994
2 63713  53.1552 211.1955 0000754  52.7420  19.9534 15.92534400  1468
STARLINK-33745          
1 63714U 25087T   25127.91668981 -.01169773  40904-3 -33414-2 0  9991
2 63714  53.1550 211.1915 0000692  54.8396  19.5076 15.92586972  1467
STARLINK-33728          
1 63715U 25087U   25127.91668981 -.01228698  44958-3 -34162-2 0  9998
2 63715  53.1548 211.1544 0000799  52.2690  39.8911 15.93112479  1461
STARLINK-33749          
1 63716U 25087V   25127.91668981 -.01179386  41539-3 -33595-2 0  9999
2 63716  53.1553 211.1879 0000769  55.5388  20.5230 15.92641801  1462
STARLINK-33725          
1 63717U 25087W   25127.91668981 -.01222760  44537-3 -34103-2 0  9992
2 63717  53.1550 211.1587 0000786  53.1700  36.9742 15.93052161  1462
STARLINK-33641          
1 63718U 25087X   25127.91668981 -.01197476  42753-3 -33912-2 0  9993
2 63718  53.1550 211.1801 0000745  54.3092  25.4788 15.92756468  1300
STARLINK-33727          
1 63719U 25087Y   25127.91668981 -.01212467  43783-3 -34121-2 0  9999
2 63719  53.1551 211.1716 0000802  52.6010  31.3769 15.92879213  1479
STARLINK-33757          
1 63720U 25087Z   25127.91668981 -.01225615  44709-3 -34255-2 0  9997
2 63720  53.1549 211.1621 0000814  52.7221  35.9385 15.93012362  1302
